{"type":"FeatureCollection","features":[{"type":"Feature","properties":{"bike_class":"mtb_unrated","mtb_scale":"","highway":"path","name":"","osm_id":"5147645"},"geometry":{"type":"LineString","coordinates":[[8.68058,49.42298],[8.68072,49.423],[8.68166,49.42316],[8.68288,49.42337]]}},{"type":"Feature","properties":{"bike_class":"urban","mtb_scale":"","highway":"living_street","name":"Alte Brücke","osm_id":"5209247"},"geometry":{"type":"LineString","coordinates":[[8.70959,49.41335],[8.70959,49.41337],[8.70951,49.41513],[8.70951,49.41518],[8.70951,49.41521]]}},{"type":"Feature","properties":{"bike_class":"urban","mtb_scale":"","highway":"living_street","name":"Akademiestraße","osm_id":"14193661"},"geometry":{"type":"LineString","coordinates":[[8.69761,49.41044],[8.69763,49.4104],[8.69778,49.41],[8.69779,49.40997],[8.6979,49.40966],[8.69796,49.40949],[8.69811,49.40912],[8.69813,49.40908]]}},{"type":"Feature","properties":{"bike_class":"urban","mtb_scale":"","highway":"living_street","name":"Theaterstraße","osm_id":"14199102"},"geometry":{"type":"LineString","coordinates":[[8.70388,49.41074],[8.70389,49.41071],[8.70391,49.41063],[8.70392,49.41058],[8.70394,49.41051],[8.70402,49.4102],[8.70403,49.41017],[8.70404,49.41014],[8.70406,49.41006],[8.70408,49.40996],[8.70411,49.40985],[8.70415,49.4097],[8.70415,49.40969],[8.70418,49.40957],[8.7042,49.4095]]}},{"type":"Feature","properties":{"bike_class":"road","mtb_scale":"","highway":"residential","name":"Gaisbergstraße","osm_id":"22978248"},"geometry":{"type":"LineString","coordinates":[[8.69226,49.40141],[8.69184,49.40005]]}},{"type":"Feature","properties":{"bike_class":"urban","mtb_scale":"","highway":"living_street","name":"Friedensstraße","osm_id":"23973790"},"geometry":{"type":"LineString","coordinates":[[8.68531,49.42972],[8.68637,49.43006],[8.68695,49.43016],[8.68723,49.4302],[8.68767,49.43025],[8.68774,49.43026],[8.68779,49.43026],[8.68786,49.43026]]}},{"type":"Feature","properties":{"bike_class":"urban","mtb_scale":"","highway":"living_street","name":"Mittlere Kirchgasse","osm_id":"24000944"},"geometry":{"type":"LineString","coordinates":[[8.68711,49.42798],[8.68725,49.42772],[8.68743,49.42728],[8.68753,49.42705],[8.68756,49.427],[8.68761,49.42695]]}},{"type":"Feature","properties":{"bike_class":"mtb_unrated","mtb_scale":"","highway":"track","name":"Philosophenweg","osm_id":"24270763"},"geometry":{"type":"LineString","coordinates":[[8.70017,49.41515],[8.70011,49.41511],[8.70007,49.41509],[8.70006,49.41507],[8.70004,49.41505],[8.70001,49.415],[8.69998,49.41495],[8.69997,49.41493],[8.69994,49.41489],[8.69992,49.41487],[8.6999,49.41484],[8.69987,49.41482],[8.69984,49.4148],[8.6998,49.41478],[8.69977,49.41477],[8.69973,49.41476],[8.69965,49.41476],[8.69952,49.41476],[8.69943,49.41477],[8.69923,49.41477]]}},{"type":"Feature","properties":{"bike_class":"urban","mtb_scale":"","highway":"living_street","name":"Goethestraße","osm_id":"24340228"},"geometry":{"type":"LineString","coordinates":[[8.68951,49.40427],[8.68968,49.40477],[8.68987,49.40535]]}},{"type":"Feature","properties":{"bike_class":"urban","mtb_scale":"","highway":"living_street","name":"Landhausstraße","osm_id":"24340229"},"geometry":{"type":"LineString","coordinates":[[8.68842,49.40191],[8.68854,49.40259],[8.68856,49.40265]]}},{"type":"Feature","properties":{"bike_class":"urban","mtb_scale":"","highway":"living_street","name":"Zähringerstraße","osm_id":"24340235"},"geometry":{"type":"LineString","coordinates":[[8.6856,49.40191],[8.68557,49.40192],[8.68552,49.40192],[8.6854,49.40192],[8.68519,49.40191],[8.68506,49.40191],[8.68501,49.4019]]}},{"type":"Feature","properties":{"bike_class":"urban","mtb_scale":"","highway":"living_street","name":"Zähringerstraße","osm_id":"24340236"},"geometry":{"type":"LineString","coordinates":[[8.68955,49.40187],[8.68842,49.40191],[8.68713,49.40196]]}},{"type":"Feature","properties":{"bike_class":"urban","mtb_scale":"","highway":"living_street","name":"Pfarrgasse","osm_id":"24340259"},"geometry":{"type":"LineString","coordinates":[[8.68884,49.42639],[8.68786,49.42625]]}},{"type":"Feature","properties":{"bike_class":"mtb_unrated","mtb_scale":"","highway":"track","name":"Klosterweg","osm_id":"24340262"},"geometry":{"type":"LineString","coordinates":[[8.70585,49.42255],[8.70586,49.42242],[8.70584,49.4223],[8.70584,49.42218]]}},{"type":"Feature","properties":{"bike_class":"urban","mtb_scale":"","highway":"living_street","name":"Obere Kirchgasse","osm_id":"24435228"},"geometry":{"type":"LineString","coordinates":[[8.68786,49.42625],[8.6878,49.42641],[8.68772,49.42663],[8.68769,49.42691],[8.68761,49.42695]]}},{"type":"Feature","properties":{"bike_class":"urban","mtb_scale":"","highway":"living_street","name":"Lindengasse","osm_id":"24435229"},"geometry":{"type":"LineString","coordinates":[[8.68677,49.42688],[8.68709,49.42692],[8.68761,49.42695]]}},{"type":"Feature","properties":{"bike_class":"urban","mtb_scale":"","highway":"living_street","name":"Untere Kirchgasse","osm_id":"24435230"},"geometry":{"type":"LineString","coordinates":[[8.68683,49.42728],[8.68693,49.42721],[8.687,49.42714],[8.68709,49.42692]]}},{"type":"Feature","properties":{"bike_class":"mtb_unrated","mtb_scale":"","highway":"path","name":"","osm_id":"24435232"},"geometry":{"type":"LineString","coordinates":[[8.68564,49.40619],[8.68569,49.40631],[8.68581,49.40658],[8.68595,49.40691]]}},{"type":"Feature","properties":{"bike_class":"urban","mtb_scale":"","highway":"living_street","name":"Amselgasse","osm_id":"24485178"},"geometry":{"type":"LineString","coordinates":[[8.68929,49.42941],[8.68898,49.42944],[8.68847,49.42952],[8.6883,49.42953],[8.68817,49.42952],[8.68809,49.42952],[8.68792,49.42952],[8.68762,49.42953]]}},{"type":"Feature","properties":{"bike_class":"mtb_unrated","mtb_scale":"","highway":"path","name":"","osm_id":"24485183"},"geometry":{"type":"LineString","coordinates":[[8.69956,49.4303],[8.69957,49.43028],[8.69956,49.43027],[8.69947,49.4302],[8.69926,49.43005],[8.69925,49.43004],[8.69925,49.43]]}},{"type":"Feature","properties":{"bike_class":"urban","mtb_scale":"","highway":"living_street","name":"Friedensstraße","osm_id":"24485189"},"geometry":{"type":"LineString","coordinates":[[8.68291,49.42897],[8.68293,49.42897],[8.68294,49.42897],[8.68319,49.42904],[8.68322,49.42905],[8.68453,49.42946],[8.68531,49.42972]]}},{"type":"Feature","properties":{"bike_class":"urban","mtb_scale":"","highway":"living_street","name":"Steckelsgasse","osm_id":"24560442"},"geometry":{"type":"LineString","coordinates":[[8.68838,49.42775],[8.68847,49.42776],[8.68851,49.42775],[8.68868,49.42772],[8.68888,49.4277],[8.68902,49.4277],[8.68906,49.4277],[8.68912,49.4277],[8.6894,49.42775],[8.68967,49.42779],[8.68994,49.42782],[8.6902,49.42783],[8.69042,49.42785]]}},{"type":"Feature","properties":{"bike_class":"urban","mtb_scale":"","highway":"living_street","name":"Leimengrube","osm_id":"24560450"},"geometry":{"type":"LineString","coordinates":[[8.69002,49.42669],[8.6907,49.4266],[8.69123,49.42651],[8.69142,49.42647],[8.69164,49.42642],[8.69175,49.42639],[8.69177,49.42638],[8.69178,49.42637],[8.69178,49.42636],[8.69178,49.42635],[8.69177,49.42634],[8.69175,49.42633],[8.69172,49.42633],[8.69168,49.42633],[8.69159,49.42634],[8.69133,49.42638]]}},{"type":"Feature","properties":{"bike_class":"mtb_unrated","mtb_scale":"","highway":"track","name":"Leimengrube","osm_id":"24560451"},"geometry":{"type":"LineString","coordinates":[[8.69178,49.42636],[8.69192,49.42627],[8.69202,49.42616],[8.69207,49.42611],[8.69214,49.42601],[8.69219,49.42595],[8.69223,49.42589],[8.69232,49.42567],[8.69241,49.42553],[8.69256,49.42537],[8.69269,49.42529],[8.69298,49.42512],[8.69318,49.42502],[8.69335,49.42491],[8.69344,49.42484],[8.69346,49.42481],[8.69348,49.42475]]}},{"type":"Feature","properties":{"bike_class":"urban","mtb_scale":"","highway":"living_street","name":"Untere Büttengasse","osm_id":"24560452"},"geometry":{"type":"LineString","coordinates":[[8.68883,49.42647],[8.68892,49.42649],[8.6892,49.42653],[8.69002,49.42669]]}},{"type":"Feature","properties":{"bike_class":"urban","mtb_scale":"","highway":"living_street","name":"Kehrweg","osm_id":"24561757"},"geometry":{"type":"LineString","coordinates":[[8.69042,49.42785],[8.69039,49.42812],[8.69033,49.42823],[8.69012,49.42838]]}},{"type":"Feature","properties":{"bike_class":"urban","mtb_scale":"","highway":"living_street","name":"Steckelsgasse","osm_id":"24561758"},"geometry":{"type":"LineString","coordinates":[[8.69042,49.42785],[8.69065,49.42786],[8.69086,49.42788],[8.69092,49.42789],[8.69097,49.4279],[8.69109,49.42796],[8.69117,49.428],[8.69124,49.42802],[8.6914,49.42806],[8.69165,49.42812],[8.69182,49.42815]]}},{"type":"Feature","properties":{"bike_class":"urban","mtb_scale":"","highway":"living_street","name":"Rummerweg","osm_id":"24561759"},"geometry":{"type":"LineString","coordinates":[[8.69021,49.42606],[8.69026,49.42593],[8.69032,49.42547],[8.69036,49.42538],[8.69034,49.42471]]}},{"type":"Feature","properties":{"bike_class":"mtb_unrated","mtb_scale":"","highway":"path","name":"","osm_id":"24561761"},"geometry":{"type":"LineString","coordinates":[[8.69267,49.42818],[8.6929,49.42818],[8.69295,49.42818],[8.69301,49.42819],[8.69335,49.42825],[8.69383,49.42836],[8.69416,49.42845],[8.69434,49.4285],[8.69443,49.42852],[8.69457,49.42853],[8.69475,49.42854],[8.69483,49.42854],[8.6949,49.42852],[8.69513,49.42847],[8.69526,49.42845],[8.69532,49.42844],[8.69545,49.42843],[8.69556,49.42843],[8.69573,49.42843],[8.69583,49.42844],[8.69594,49.42846]]}},{"type":"Feature","properties":{"bike_class":"urban","mtb_scale":"","highway":"living_street","name":"Obere Büttengasse","osm_id":"24561762"},"geometry":{"type":"LineString","coordinates":[[8.6894,49.42775],[8.6895,49.42756],[8.68977,49.42716],[8.68995,49.42685],[8.69002,49.42669]]}},{"type":"Feature","properties":{"bike_class":"urban","mtb_scale":"","highway":"living_street","name":"Handschuhsheimer Landstraße","osm_id":"24561763"},"geometry":{"type":"LineString","coordinates":[[8.68891,49.42602],[8.68904,49.42545],[8.68905,49.42536],[8.68905,49.42533],[8.68906,49.42515],[8.68906,49.42513],[8.68907,49.42495],[8.68907,49.42491],[8.68904,49.4247],[8.68903,49.4246]]}},{"type":"Feature","properties":{"bike_class":"mtb_unrated","mtb_scale":"","highway":"path","name":"","osm_id":"24587269"},"geometry":{"type":"LineString","coordinates":[[8.68886,49.4222],[8.68885,49.42217],[8.68881,49.42212],[8.68886,49.422],[8.68895,49.42182],[8.68911,49.42145],[8.68914,49.42137],[8.68921,49.42134],[8.68925,49.42131]]}},{"type":"Feature","properties":{"bike_class":"urban","mtb_scale":"","highway":"living_street","name":"Schulzengasse","osm_id":"24644350"},"geometry":{"type":"LineString","coordinates":[[8.69104,49.41459],[8.69086,49.41492],[8.69076,49.4151],[8.69074,49.41513]]}},{"type":"Feature","properties":{"bike_class":"gravel","mtb_scale":"","highway":"track","name":"Mittlerer Guckkastenweg","osm_id":"24662414"},"geometry":{"type":"LineString","coordinates":[[8.71834,49.41975],[8.71842,49.41977],[8.71851,49.4198],[8.71859,49.41985],[8.71874,49.41992],[8.71889,49.41998],[8.71902,49.42006],[8.71907,49.4201],[8.7191,49.42014],[8.71916,49.42023],[8.71921,49.42029],[8.71926,49.42033],[8.71932,49.42036],[8.7194,49.4204],[8.71952,49.42046],[8.71958,49.4205],[8.71965,49.42056],[8.71971,49.42061],[8.71976,49.42063],[8.71982,49.42065],[8.71989,49.42067],[8.7201,49.4207],[8.72019,49.42071],[8.72026,49.4207],[8.72035,49.42068],[8.72048,49.42063],[8.72056,49.42061],[8.72061,49.42059],[8.72092,49.42057],[8.72105,49.42057],[8.72113,49.42057],[8.72117,49.42056],[8.72122,49.42055],[8.72126,49.42053],[8.72131,49.42051],[8.72136,49.42049],[8.72139,49.42046],[8.72143,49.42045],[8.72148,49.42042],[8.72157,49.4204],[8.72168,49.4204],[8.72176,49.42041],[8.72184,49.42043],[8.72189,49.42043],[8.72192,49.42043],[8.72203,49.42046],[8.72216,49.4205],[8.7222,49.42051],[8.72223,49.42053],[8.72225,49.42054],[8.72228,49.42057],[8.7223,49.42059],[8.72231,49.42062],[8.72234,49.42067],[8.72242,49.42088],[8.72244,49.42092],[8.72245,49.42095],[8.72248,49.42098],[8.72252,49.42099],[8.72256,49.421],[8.72259,49.421],[8.72278,49.42101],[8.72286,49.42102],[8.72291,49.42103],[8.72296,49.42104],[8.723,49.42105],[8.72304,49.42108],[8.72307,49.42111],[8.72312,49.42117],[8.72316,49.4212],[8.7232,49.42121],[8.72324,49.42122],[8.72329,49.42122],[8.72334,49.42122],[8.7234,49.4212],[8.72347,49.42118],[8.72357,49.42115],[8.72363,49.42113],[8.72369,49.42112],[8.72375,49.42113],[8.7238,49.42114],[8.72384,49.42116],[8.72388,49.42118],[8.7239,49.42121],[8.72391,49.42124],[8.72391,49.42134],[8.72392,49.42138],[8.72393,49.42142],[8.72396,49.42145],[8.724,49.42147],[8.72404,49.42148],[8.72409,49.42148],[8.72414,49.42149],[8.72424,49.42148],[8.72437,49.42146],[8.72443,49.42146],[8.72448,49.42147],[8.72452,49.42147],[8.72456,49.42149],[8.72462,49.42152],[8.72465,49.42156],[8.72466,49.42163],[8.72465,49.42169],[8.72465,49.42173],[8.72466,49.42178],[8.72468,49.42182],[8.72472,49.42188],[8.72474,49.42193],[8.72473,49.42199],[8.72471,49.42206],[8.72471,49.42212],[8.72474,49.42219],[8.72477,49.42224],[8.72482,49.42229],[8.7249,49.42235],[8.72494,49.42237],[8.72497,49.42238],[8.725,49.42239],[8.72503,49.4224],[8.72506,49.42241],[8.72508,49.42241],[8.72512,49.42241],[8.72515,49.42241],[8.72518,49.4224],[8.72521,49.42239],[8.72528,49.42237],[8.72533,49.42236],[8.72537,49.42235],[8.72542,49.42236],[8.72545,49.42236],[8.72548,49.42237],[8.72552,49.42239],[8.72558,49.42241],[8.72568,49.42247],[8.72575,49.42251],[8.7258,49.42254],[8.72584,49.42257],[8.72587,49.4226],[8.72592,49.42263],[8.72597,49.42269],[8.72603,49.42275],[8.7261,49.42278],[8.72615,49.42279],[8.72619,49.4228],[8.72623,49.4228],[8.72628,49.4228],[8.72633,49.4228],[8.72637,49.4228],[8.7264,49.42279],[8.72644,49.42278],[8.72647,49.42277],[8.7265,49.42276],[8.72652,49.42275],[8.72654,49.42273],[8.72657,49.42271],[8.72662,49.42263],[8.72665,49.4226],[8.72668,49.42257],[8.72672,49.42255],[8.72677,49.42253],[8.72691,49.42248],[8.72704,49.42244],[8.72708,49.42243],[8.72711,49.42241],[8.72721,49.42234],[8.72728,49.4223],[8.72734,49.42226],[8.72741,49.42223],[8.72747,49.42222],[8.72756,49.4222],[8.72763,49.42219],[8.72771,49.42218],[8.72779,49.42218],[8.72784,49.42218],[8.72789,49.42218],[8.72795,49.42219],[8.72798,49.4222],[8.72802,49.42221],[8.72805,49.42222],[8.72808,49.42225],[8.7281,49.42228],[8.72818,49.42246],[8.72824,49.42267],[8.72826,49.42272],[8.72829,49.42277],[8.72832,49.42281],[8.7284,49.42288],[8.72851,49.42295],[8.72863,49.42301],[8.7288,49.42309],[8.72886,49.42312],[8.72891,49.42313],[8.72895,49.42313],[8.72899,49.42312],[8.72905,49.42311],[8.72909,49.42308],[8.72913,49.42304],[8.72918,49.42296],[8.72927,49.42279],[8.72931,49.42273],[8.72936,49.42271],[8.72941,49.42271],[8.72952,49.4227],[8.72958,49.42269],[8.72964,49.42268],[8.72968,49.42266],[8.72971,49.42263],[8.72973,49.42262],[8.72974,49.42259],[8.72976,49.42254],[8.72979,49.4224],[8.72982,49.42233],[8.72984,49.42229],[8.72986,49.42224],[8.72989,49.4222],[8.72992,49.42217],[8.72995,49.42215],[8.72998,49.42213],[8.73005,49.4221],[8.73011,49.42208],[8.73018,49.42206],[8.73024,49.42205],[8.73032,49.42205],[8.73043,49.42205],[8.73055,49.42206],[8.73062,49.42207],[8.73069,49.42208],[8.73075,49.42209],[8.73084,49.42213],[8.73099,49.42222],[8.7311,49.42229],[8.73126,49.42237],[8.73136,49.42242],[8.73142,49.42244],[8.73149,49.42246],[8.73151,49.42246],[8.73162,49.42245],[8.73168,49.42243],[8.73183,49.42235],[8.73186,49.42234],[8.73194,49.42232]]}},{"type":"Feature","properties":{"bike_class":"urban","mtb_scale":"","highway":"living_street","name":"Dantestraße","osm_id":"24745091"},"geometry":{"type":"LineString","coordinates":[[8.68506,49.40013],[8.68654,49.40018],[8.68656,49.40018]]}},{"type":"Feature","properties":{"bike_class":"mtb","mtb_scale":"S0","highway":"track","name":"Felsenmeerweg","osm_id":"24745263"},"geometry":{"type":"LineString","coordinates":[[8.71538,49.40718],[8.7159,49.40741],[8.71618,49.40753],[8.71645,49.40765],[8.71663,49.40774],[8.71672,49.40778],[8.71681,49.40781],[8.71687,49.40783],[8.71692,49.40784],[8.71701,49.40786],[8.71712,49.40787],[8.71724,49.40788],[8.71743,49.40789],[8.71759,49.40788],[8.71779,49.40786],[8.71799,49.40784],[8.71821,49.4078],[8.71852,49.40775],[8.71854,49.40775]]}},{"type":"Feature","properties":{"bike_class":"gravel","mtb_scale":"","highway":"track","name":"Kühruhweg","osm_id":"24811841"},"geometry":{"type":"LineString","coordinates":[[8.71828,49.42229],[8.71817,49.42239],[8.71812,49.42245],[8.71808,49.42249],[8.71805,49.42253],[8.71803,49.42259],[8.71801,49.42263],[8.71799,49.42268],[8.71798,49.42273],[8.71793,49.42294],[8.71791,49.42303],[8.71788,49.42312],[8.71786,49.42319],[8.71783,49.42325],[8.71775,49.42342],[8.71764,49.42365],[8.7176,49.42373],[8.71758,49.42377],[8.71757,49.4238],[8.71755,49.42383],[8.71751,49.42387],[8.71746,49.42392],[8.71737,49.424],[8.7173,49.42406],[8.71719,49.42414],[8.71708,49.42421],[8.71676,49.4244],[8.7164,49.42461],[8.71606,49.42481],[8.71594,49.42487],[8.71585,49.42493],[8.71578,49.42498],[8.71572,49.42503],[8.71566,49.42509],[8.71555,49.42518],[8.71543,49.42532],[8.71538,49.42538],[8.71535,49.42541],[8.71532,49.42544],[8.71528,49.42547],[8.71522,49.42552],[8.71514,49.42557],[8.71508,49.42561],[8.71498,49.42566],[8.71486,49.42571],[8.71475,49.42575],[8.71466,49.42578],[8.71458,49.42581],[8.71435,49.42588],[8.71396,49.426],[8.71383,49.42604],[8.71373,49.42606],[8.71369,49.42607],[8.71366,49.42608],[8.71362,49.42608],[8.71356,49.42608],[8.71349,49.42607],[8.71329,49.42605],[8.71312,49.42603],[8.71306,49.42601],[8.713,49.426],[8.71277,49.42593],[8.71246,49.4258],[8.71236,49.42576],[8.71229,49.42573],[8.71224,49.4257],[8.71221,49.42568],[8.71218,49.42565],[8.71214,49.42562],[8.71208,49.42556],[8.71199,49.42544],[8.71192,49.42537],[8.71189,49.42535],[8.71186,49.42532],[8.71183,49.4253]]}},{"type":"Feature","properties":{"bike_class":"mtb_unrated","mtb_scale":"","highway":"path","name":"","osm_id":"24839108"},"geometry":{"type":"LineString","coordinates":[[8.69296,49.41154],[8.69294,49.41157],[8.69249,49.41325]]}},{"type":"Feature","properties":{"bike_class":"urban","mtb_scale":"","highway":"living_street","name":"Goldschmidtstraße","osm_id":"24841421"},"geometry":{"type":"LineString","coordinates":[[8.691,49.40093],[8.69041,49.40103],[8.6898,49.40114],[8.68934,49.40123]]}},{"type":"Feature","properties":{"bike_class":"urban","mtb_scale":"","highway":"living_street","name":"Hildastraße","osm_id":"24841426"},"geometry":{"type":"LineString","coordinates":[[8.68271,49.4033],[8.68266,49.40394],[8.68266,49.40396],[8.68265,49.40402]]}},{"type":"Feature","properties":{"bike_class":"urban","mtb_scale":"","highway":"living_street","name":"Dantestraße","osm_id":"24841429"},"geometry":{"type":"LineString","coordinates":[[8.68507,49.4004],[8.68419,49.40037],[8.68349,49.40034],[8.68296,49.40033],[8.68276,49.40036]]}},{"type":"Feature","properties":{"bike_class":"mtb_unrated","mtb_scale":"","highway":"path","name":"","osm_id":"24868131"},"geometry":{"type":"LineString","coordinates":[[8.68275,49.42715],[8.68268,49.42708],[8.68269,49.42703],[8.68271,49.42699],[8.6828,49.42686],[8.68294,49.42665],[8.68298,49.42658]]}},{"type":"Feature","properties":{"bike_class":"urban","mtb_scale":"","highway":"living_street","name":"Kaiserstraße","osm_id":"24909351"},"geometry":{"type":"LineString","coordinates":[[8.6919,49.40312],[8.69006,49.40334]]}},{"type":"Feature","properties":{"bike_class":"mtb","mtb_scale":"S1","highway":"path","name":"Königstuhlweg","osm_id":"25111966"},"geometry":{"type":"LineString","coordinates":[[8.72314,49.40704],[8.72299,49.40699],[8.7228,49.40694],[8.72254,49.40689],[8.72226,49.40683],[8.72194,49.40677],[8.72165,49.40673],[8.72151,49.40672],[8.72136,49.40671],[8.72123,49.40671],[8.72102,49.40673],[8.72045,49.4068],[8.72006,49.40685],[8.71982,49.40689],[8.71958,49.40692],[8.71937,49.40695],[8.71917,49.40698],[8.71902,49.40701],[8.71884,49.40704],[8.71858,49.40709],[8.7183,49.40715],[8.71796,49.40723],[8.71776,49.40728],[8.71759,49.40731],[8.71757,49.40732]]}},{"type":"Feature","properties":{"bike_class":"mtb_unrated","mtb_scale":"","highway":"path","name":"","osm_id":"25155219"},"geometry":{"type":"LineString","coordinates":[[8.70585,49.42255],[8.70589,49.42261],[8.70592,49.42267],[8.70594,49.42274],[8.70601,49.42297],[8.70608,49.4231]]}},{"type":"Feature","properties":{"bike_class":"gravel","mtb_scale":"","highway":"track","name":"","osm_id":"25155220"},"geometry":{"type":"LineString","coordinates":[[8.70503,49.4251],[8.70505,49.4251],[8.70507,49.42511],[8.70509,49.42511],[8.70511,49.42511],[8.70513,49.42511],[8.70516,49.4251],[8.70518,49.42508],[8.70525,49.42503],[8.70533,49.42497],[8.70544,49.4249],[8.70563,49.42477],[8.70572,49.42472],[8.70578,49.4247],[8.70582,49.42468]]}},{"type":"Feature","properties":{"bike_class":"mtb","mtb_scale":"S1","highway":"path","name":"","osm_id":"25155221"},"geometry":{"type":"LineString","coordinates":[[8.70516,49.42601],[8.70501,49.42591],[8.70486,49.42584],[8.70481,49.42577],[8.70479,49.42572],[8.70479,49.4257],[8.70479,49.42566],[8.70479,49.42561],[8.70482,49.42552],[8.70484,49.42547],[8.70491,49.42533],[8.70497,49.42522],[8.70507,49.42511]]}},{"type":"Feature","properties":{"bike_class":"gravel","mtb_scale":"","highway":"track","name":"","osm_id":"25155222"},"geometry":{"type":"LineString","coordinates":[[8.70531,49.42609],[8.70525,49.42597],[8.70527,49.42591],[8.70532,49.4258],[8.70535,49.42575],[8.70538,49.4257],[8.70542,49.42565],[8.70545,49.42562],[8.70552,49.42557],[8.70561,49.42551],[8.70568,49.42546],[8.70582,49.42538],[8.70595,49.42534],[8.70608,49.4253],[8.70627,49.42526],[8.70638,49.42526]]}},{"type":"Feature","properties":{"bike_class":"mtb","mtb_scale":"S1","highway":"path","name":"","osm_id":"25155224"},"geometry":{"type":"LineString","coordinates":[[8.71013,49.42716],[8.71008,49.42712],[8.71001,49.42704],[8.70992,49.42692],[8.70965,49.42663],[8.70925,49.42631],[8.70899,49.42596],[8.70868,49.42563],[8.70822,49.42529],[8.70816,49.42526],[8.70777,49.42504],[8.70726,49.42474]]}},{"type":"Feature","properties":{"bike_class":"mtb_unrated","mtb_scale":"","highway":"path","name":"","osm_id":"25157563"},"geometry":{"type":"LineString","coordinates":[[8.68298,49.42658],[8.68299,49.42655],[8.68299,49.42651],[8.68299,49.42646],[8.68298,49.42642],[8.68296,49.42636],[8.6829,49.42629],[8.6826,49.42604],[8.68251,49.42596]]}},{"type":"Feature","properties":{"bike_class":"road","mtb_scale":"","highway":"cycleway","name":"","osm_id":"25165439"},"geometry":{"type":"LineString","coordinates":[[8.68249,49.40016],[8.68235,49.40031],[8.68217,49.40047],[8.68214,49.4005],[8.68208,49.40055],[8.68178,49.4008],[8.68145,49.40105],[8.68126,49.40123]]}},{"type":"Feature","properties":{"bike_class":"gravel","mtb_scale":"","highway":"track","name":"Heidenknörzelweg","osm_id":"25767248"},"geometry":{"type":"LineString","coordinates":[[8.72075,49.43142],[8.72066,49.43122],[8.72038,49.43067],[8.72012,49.43012],[8.71996,49.42984],[8.71991,49.4297],[8.71989,49.42962],[8.71989,49.42951],[8.71989,49.42944],[8.71991,49.42936],[8.71994,49.4293],[8.72002,49.42915],[8.72019,49.42884],[8.72046,49.42834],[8.72049,49.42827],[8.72052,49.42823],[8.72055,49.4282],[8.72067,49.42812],[8.72085,49.42803],[8.72143,49.42782],[8.72189,49.4276],[8.72249,49.4273]]}},{"type":"Feature","properties":{"bike_class":"gravel","mtb_scale":"","highway":"path","name":"","osm_id":"25806375"},"geometry":{"type":"LineString","coordinates":[[8.68121,49.41902],[8.68131,49.41904],[8.68135,49.41904],[8.6814,49.41905],[8.68214,49.41917],[8.68257,49.41924],[8.68296,49.4193],[8.68302,49.41907],[8.68306,49.41896],[8.68309,49.41885],[8.68306,49.41883]]}},{"type":"Feature","properties":{"bike_class":"gravel","mtb_scale":"","highway":"path","name":"","osm_id":"25806376"},"geometry":{"type":"LineString","coordinates":[[8.6814,49.41905],[8.68147,49.41887],[8.68152,49.41872],[8.68156,49.4186],[8.68306,49.41883]]}},{"type":"Feature","properties":{"bike_class":"gravel","mtb_scale":"","highway":"path","name":"","osm_id":"25815525"},"geometry":{"type":"LineString","coordinates":[[8.68306,49.41896],[8.68268,49.4189],[8.68152,49.41872]]}},{"type":"Feature","properties":{"bike_class":"urban","mtb_scale":"","highway":"living_street","name":"Zähringerstraße","osm_id":"26712655"},"geometry":{"type":"LineString","coordinates":[[8.69131,49.40165],[8.69108,49.40168],[8.68987,49.40183],[8.68955,49.40187]]}},{"type":"Feature","properties":{"bike_class":"mtb_unrated","mtb_scale":"","highway":"path","name":"","osm_id":"26936045"},"geometry":{"type":"LineString","coordinates":[[8.68441,49.40991],[8.6844,49.40997],[8.68444,49.41008],[8.68452,49.41007],[8.68456,49.41007],[8.68459,49.41007],[8.68464,49.41009],[8.68502,49.41021],[8.68508,49.41023],[8.68517,49.41024],[8.68537,49.41025],[8.68557,49.41027],[8.68571,49.41027],[8.68584,49.41028],[8.68644,49.41035],[8.6869,49.4104],[8.68707,49.41041],[8.6871,49.41042],[8.68735,49.41046],[8.68741,49.41047]]}},{"type":"Feature","properties":{"bike_class":"mtb","mtb_scale":"S0","highway":"track","name":"Friesenweg","osm_id":"26990097"},"geometry":{"type":"LineString","coordinates":[[8.71385,49.40815],[8.71378,49.40814],[8.71376,49.40814],[8.71375,49.40814],[8.71372,49.40814],[8.71367,49.40814],[8.7135,49.40817],[8.71336,49.40818],[8.71321,49.40819],[8.71313,49.4082],[8.71303,49.4082],[8.7129,49.4082],[8.71277,49.40819],[8.71272,49.40819],[8.71261,49.40817]]}},{"type":"Feature","properties":{"bike_class":"gravel","mtb_scale":"","highway":"track","name":"Odenwälder Weg","osm_id":"27102299"},"geometry":{"type":"LineString","coordinates":[[8.7153,49.42918],[8.71536,49.4291],[8.71538,49.42909],[8.7154,49.42906],[8.71542,49.42904],[8.71549,49.42899],[8.71554,49.42896],[8.71606,49.42857],[8.7162,49.42847],[8.71644,49.4283],[8.71652,49.42824],[8.71658,49.4282],[8.71663,49.42815],[8.71671,49.42806],[8.71679,49.42796],[8.71692,49.42781],[8.71707,49.42761],[8.7172,49.42745],[8.71729,49.42731],[8.71732,49.42727],[8.71735,49.42722],[8.71739,49.42714],[8.71742,49.42704],[8.71748,49.42685],[8.7175,49.42679],[8.71752,49.42673],[8.71761,49.4266],[8.71774,49.42644],[8.71775,49.42641],[8.71776,49.42639],[8.71776,49.42636],[8.71774,49.42633],[8.71771,49.42631],[8.71768,49.4263],[8.71765,49.42629],[8.71762,49.42629],[8.71759,49.42629],[8.71756,49.42629],[8.71752,49.4263],[8.7175,49.42631],[8.71746,49.42633],[8.71742,49.42637],[8.71738,49.42642],[8.71721,49.42662],[8.71707,49.42678],[8.71701,49.42682],[8.71696,49.42686],[8.71688,49.42691],[8.71679,49.42695],[8.71659,49.42703],[8.71644,49.4271],[8.71633,49.42715],[8.71613,49.42725],[8.71602,49.4273],[8.71594,49.42733],[8.71587,49.42735],[8.71579,49.42737],[8.71574,49.42738],[8.71566,49.42739],[8.71557,49.4274],[8.71538,49.42741],[8.7153,49.42741],[8.71524,49.4274],[8.71519,49.4274],[8.71515,49.42739],[8.7151,49.42737],[8.71505,49.42736],[8.71493,49.42732],[8.71483,49.42727],[8.71443,49.42709],[8.71411,49.4269],[8.71358,49.42669],[8.71346,49.42666],[8.71334,49.42662],[8.71316,49.42655],[8.7131,49.42653],[8.71296,49.42644],[8.71271,49.42627],[8.7125,49.42611],[8.7123,49.42595],[8.71217,49.42583],[8.71205,49.42569],[8.71195,49.42554],[8.71185,49.42535],[8.71183,49.4253]]}},{"type":"Feature","properties":{"bike_class":"mtb_unrated","mtb_scale":"","highway":"path","name":"Alte Glockengießerei","osm_id":"27127634"},"geometry":{"type":"LineString","coordinates":[[8.68438,49.40674],[8.68449,49.40675],[8.68457,49.40675],[8.68509,49.40678],[8.6852,49.40678],[8.68526,49.40678],[8.68535,49.4068],[8.68552,49.40683],[8.68595,49.40691],[8.68622,49.40696],[8.68629,49.40698],[8.68636,49.407],[8.68643,49.40707]]}},{"type":"Feature","properties":{"bike_class":"gravel","mtb_scale":"","highway":"track","name":"Aussichtsturmfahrweg","osm_id":"27189683"},"geometry":{"type":"LineString","coordinates":[[8.71011,49.42318],[8.71003,49.42309],[8.70994,49.42297],[8.70973,49.42274],[8.70961,49.42263],[8.70938,49.42244],[8.70928,49.42235],[8.7092,49.42226],[8.70904,49.42208],[8.70888,49.4219],[8.70873,49.4217],[8.70866,49.42159],[8.7086,49.42148],[8.70853,49.42135],[8.70848,49.42122],[8.70844,49.42103],[8.70842,49.42083],[8.70841,49.42058],[8.70838,49.42035],[8.70832,49.41998],[8.70829,49.41988],[8.70826,49.41978],[8.70823,49.41973],[8.70819,49.41968],[8.70809,49.41961],[8.70789,49.4195],[8.7077,49.41942],[8.70724,49.41923],[8.70706,49.41917],[8.70682,49.41911],[8.7062,49.41897],[8.70547,49.41883],[8.70501,49.41874],[8.70431,49.41864],[8.70403,49.41859],[8.7037,49.41853],[8.70336,49.41848],[8.70318,49.41845],[8.70302,49.41843],[8.70288,49.41841],[8.70275,49.41839],[8.70267,49.41839],[8.70263,49.41839],[8.70255,49.4184],[8.70248,49.41841],[8.70242,49.41843],[8.70235,49.41845],[8.70231,49.41847],[8.70226,49.4185],[8.70218,49.41855],[8.70209,49.41864],[8.70195,49.41881],[8.70181,49.41896],[8.7017,49.4191],[8.70161,49.41923],[8.70159,49.41927],[8.70157,49.41931],[8.70156,49.41934],[8.70155,49.41938],[8.70156,49.41942],[8.70157,49.41947],[8.7016,49.41952],[8.70163,49.41957],[8.70168,49.41962],[8.70173,49.41967],[8.70178,49.4197],[8.70195,49.4198],[8.70219,49.41994],[8.70246,49.42008],[8.70308,49.42036],[8.70323,49.42042],[8.7033,49.42046],[8.70335,49.4205],[8.70342,49.42056]]}},{"type":"Feature","properties":{"bike_class":"gravel","mtb_scale":"","highway":"track","name":"Brandplattenweg","osm_id":"27189684"},"geometry":{"type":"LineString","coordinates":[[8.70838,49.42035],[8.7084,49.42031],[8.70841,49.42025],[8.70841,49.42018],[8.70841,49.42006],[8.70841,49.41996],[8.70839,49.41986],[8.70837,49.41977],[8.70834,49.41969],[8.7083,49.41964],[8.70826,49.41959],[8.7082,49.41954],[8.70789,49.41933],[8.70775,49.41922],[8.70761,49.41912],[8.70753,49.41908],[8.70744,49.41904],[8.70722,49.41896],[8.70689,49.41884],[8.70675,49.4188],[8.70642,49.41871],[8.70619,49.41864],[8.70544,49.41843],[8.70513,49.41835],[8.70477,49.41826],[8.70429,49.41815],[8.70407,49.41809],[8.70387,49.41803],[8.70378,49.418],[8.7035,49.41791],[8.70324,49.41785],[8.70296,49.41777],[8.70282,49.41773],[8.70269,49.41771],[8.70258,49.41769],[8.70249,49.41768],[8.70242,49.41767],[8.70219,49.41766],[8.70208,49.41766],[8.702,49.41765],[8.70195,49.41764],[8.7019,49.41763],[8.70185,49.41761],[8.70178,49.41758],[8.70171,49.41755],[8.70165,49.41753],[8.70159,49.41753],[8.70149,49.41753],[8.70137,49.41755],[8.70121,49.41757],[8.7011,49.41759],[8.70102,49.4176],[8.70094,49.41762],[8.70084,49.41764]]}},{"type":"Feature","properties":{"bike_class":"gravel","mtb_scale":"","highway":"track","name":"","osm_id":"27189686"},"geometry":{"type":"LineString","coordinates":[[8.70071,49.41793],[8.70077,49.41833],[8.70079,49.41849],[8.70079,49.41867],[8.70077,49.41878],[8.70072,49.41891],[8.70067,49.41904],[8.70061,49.41919],[8.70057,49.4193],[8.70056,49.41936],[8.70056,49.41941],[8.70057,49.41947],[8.70059,49.41953],[8.70062,49.41958],[8.70064,49.41962],[8.70068,49.41965],[8.70075,49.41971],[8.70082,49.41976],[8.70091,49.41981],[8.70104,49.41986],[8.70117,49.41991],[8.70136,49.41998],[8.70145,49.42001],[8.70153,49.42004],[8.70172,49.42009],[8.70193,49.42015],[8.70206,49.42018],[8.70255,49.42034],[8.70289,49.42043],[8.70302,49.42046],[8.70312,49.42048],[8.70321,49.4205],[8.70326,49.4205],[8.7033,49.42051],[8.70336,49.42054],[8.70342,49.42056]]}},{"type":"Feature","properties":{"bike_class":"mtb","mtb_scale":"S1","highway":"path","name":"Sankt-Stephansweg","osm_id":"27189687"},"geometry":{"type":"LineString","coordinates":[[8.71011,49.42318],[8.71006,49.42318],[8.71002,49.42316],[8.70977,49.42294],[8.70959,49.42287],[8.70939,49.42278],[8.7092,49.42266],[8.70894,49.42247],[8.70871,49.42229],[8.70834,49.42206],[8.70814,49.42193],[8.70787,49.4217],[8.70763,49.42147],[8.70731,49.42115],[8.70711,49.42072]]}},{"type":"Feature","properties":{"bike_class":"gravel","mtb_scale":"","highway":"track","name":"Merkursteinweg","osm_id":"27189690"},"geometry":{"type":"LineString","coordinates":[[8.70091,49.41981],[8.70159,49.42051],[8.70242,49.42179],[8.70262,49.42211],[8.70267,49.42258],[8.70267,49.42282],[8.7026,49.42308],[8.70251,49.42333],[8.70231,49.42358],[8.7021,49.42375],[8.70153,49.42404]]}},{"type":"Feature","properties":{"bike_class":"mtb","mtb_scale":"S0","highway":"path","name":"Hainsbachweg","osm_id":"27189691"},"geometry":{"type":"LineString","coordinates":[[8.70242,49.42179],[8.70245,49.42142],[8.70257,49.42138],[8.70305,49.42159],[8.70354,49.42189],[8.70374,49.42206],[8.70386,49.42222],[8.70393,49.42238]]}},{"type":"Feature","properties":{"bike_class":"mtb","mtb_scale":"S0","highway":"path","name":"Hainsbachweg","osm_id":"27189692"},"geometry":{"type":"LineString","coordinates":[[8.70168,49.42288],[8.70194,49.42266],[8.70214,49.42236],[8.70242,49.42179]]}},{"type":"Feature","properties":{"bike_class":"mtb","mtb_scale":"S0","highway":"track","name":"Biehlerweg","osm_id":"27189693"},"geometry":{"type":"LineString","coordinates":[[8.69927,49.41865],[8.69918,49.41877],[8.69912,49.41888],[8.69904,49.41903],[8.69899,49.41916],[8.69894,49.4193],[8.69891,49.41941],[8.69891,49.41948],[8.69891,49.41953],[8.69892,49.41959],[8.69894,49.41964],[8.69899,49.41969],[8.69923,49.41994],[8.69949,49.4202],[8.69989,49.42056],[8.70018,49.42081],[8.70053,49.4211],[8.70129,49.42171],[8.70151,49.42192],[8.70163,49.42207],[8.70173,49.42225],[8.70175,49.42235],[8.70176,49.42248],[8.70173,49.42262],[8.70168,49.42288],[8.70166,49.42296],[8.70163,49.42306],[8.70162,49.42308],[8.70159,49.42313],[8.70155,49.42318],[8.70149,49.42322],[8.70142,49.42327],[8.70128,49.42334],[8.70106,49.42342],[8.70079,49.42352],[8.70056,49.4236],[8.70028,49.42368],[8.70002,49.42376],[8.69978,49.42382],[8.69951,49.42389],[8.69927,49.42395],[8.69903,49.42405],[8.69875,49.42417],[8.69863,49.42423],[8.6986,49.42425],[8.69857,49.42428],[8.69853,49.42433],[8.69852,49.42435],[8.69852,49.42437]]}},{"type":"Feature","properties":{"bike_class":"mtb","mtb_scale":"S0","highway":"path","name":"Biehler Fußweg","osm_id":"27189694"},"geometry":{"type":"LineString","coordinates":[[8.69757,49.41974],[8.6976,49.41974],[8.69765,49.41979],[8.69769,49.41982],[8.6978,49.4199],[8.69794,49.41999],[8.69818,49.42011],[8.69829,49.42018],[8.69838,49.42023],[8.6985,49.42032],[8.69861,49.42042],[8.69869,49.42048],[8.69879,49.42055],[8.69888,49.42059],[8.69904,49.42067],[8.69925,49.42078],[8.69969,49.42106],[8.69994,49.42119],[8.7002,49.42133],[8.70031,49.42139],[8.70062,49.42162],[8.70136,49.4222],[8.70141,49.42242],[8.70143,49.42247],[8.70149,49.42255],[8.70151,49.4226],[8.70152,49.42266],[8.70152,49.42279],[8.70157,49.42294],[8.70158,49.42305],[8.70157,49.4231],[8.70153,49.42314],[8.7015,49.42318]]}},{"type":"Feature","properties":{"bike_class":"urban","mtb_scale":"","highway":"living_street","name":"Blumenstraße","osm_id":"27342468"},"geometry":{"type":"LineString","coordinates":[[8.68466,49.40435],[8.68469,49.40435],[8.68609,49.40441],[8.68711,49.40444]]}},{"type":"Feature","properties":{"bike_class":"mtb","mtb_scale":"S0","highway":"path","name":"Sankt-Michaels Fußweg","osm_id":"27390639"},"geometry":{"type":"LineString","coordinates":[[8.70686,49.42335],[8.70686,49.42332],[8.70687,49.42327],[8.70686,49.42324],[8.70674,49.42279],[8.70665,49.42256],[8.70659,49.42245],[8.70653,49.42237],[8.70647,49.42232],[8.70647,49.42227]]}},{"type":"Feature","properties":{"bike_class":"urban","mtb_scale":"","highway":"living_street","name":"Häusserstraße","osm_id":"27426208"},"geometry":{"type":"LineString","coordinates":[[8.69098,49.40606],[8.69069,49.40523]]}},{"type":"Feature","properties":{"bike_class":"mtb_unrated","mtb_scale":"","highway":"path","name":"","osm_id":"27619478"},"geometry":{"type":"LineString","coordinates":[[8.67882,49.40956],[8.67886,49.40956],[8.67896,49.40959],[8.67919,49.4097],[8.6793,49.40972],[8.67943,49.40974],[8.67975,49.40978],[8.68009,49.40981],[8.68031,49.40981],[8.68069,49.40983],[8.68082,49.40985],[8.68094,49.40987],[8.68151,49.40991],[8.68188,49.40992]]}},{"type":"Feature","properties":{"bike_class":"mtb_unrated","mtb_scale":"","highway":"path","name":"","osm_id":"27619479"},"geometry":{"type":"LineString","coordinates":[[8.68212,49.41002],[8.68239,49.41004],[8.68297,49.41005],[8.68371,49.41007],[8.68412,49.4101],[8.68421,49.4101],[8.68431,49.4101],[8.68444,49.41008]]}},{"type":"Feature","properties":{"bike_class":"mtb_unrated","mtb_scale":"","highway":"path","name":"","osm_id":"27619499"},"geometry":{"type":"LineString","coordinates":[[8.68203,49.40993],[8.68242,49.40995],[8.68294,49.40996],[8.68305,49.40992],[8.68317,49.40986],[8.68328,49.4098],[8.68343,49.40979],[8.68356,49.40976],[8.68391,49.40981],[8.68418,49.40985],[8.68427,49.40985],[8.68441,49.40985],[8.68441,49.40991]]}},{"type":"Feature","properties":{"bike_class":"urban","mtb_scale":"","highway":"living_street","name":"Gaswerkstraße","osm_id":"27619920"},"geometry":{"type":"LineString","coordinates":[[8.68301,49.40552],[8.68298,49.4056],[8.68296,49.40566],[8.68285,49.40593],[8.68271,49.40634],[8.6827,49.40636],[8.6827,49.40638],[8.68263,49.40658]]}},{"type":"Feature","properties":{"bike_class":"mtb_unrated","mtb_scale":"","highway":"path","name":"","osm_id":"27619923"},"geometry":{"type":"LineString","coordinates":[[8.68238,49.40656],[8.68238,49.40669],[8.68238,49.40681],[8.68239,49.40711],[8.6824,49.40723],[8.6824,49.40748],[8.68242,49.40754]]}},{"type":"Feature","properties":{"bike_class":"mtb_unrated","mtb_scale":"","highway":"path","name":"","osm_id":"27619926"},"geometry":{"type":"LineString","coordinates":[[8.6824,49.40723],[8.6821,49.40723],[8.68187,49.40723],[8.68187,49.40716],[8.68186,49.40682],[8.68209,49.40682],[8.68238,49.40681]]}},{"type":"Feature","properties":{"bike_class":"mtb_unrated","mtb_scale":"","highway":"path","name":"","osm_id":"27620739"},"geometry":{"type":"LineString","coordinates":[[8.68628,49.40629],[8.68624,49.40632],[8.68581,49.40658],[8.68551,49.40675],[8.68553,49.40681],[8.68552,49.40683]]}},{"type":"Feature","properties":{"bike_class":"urban","mtb_scale":"","highway":"living_street","name":"Bunsenstraße","osm_id":"28171936"},"geometry":{"type":"LineString","coordinates":[[8.69069,49.40523],[8.68987,49.40535]]}}]}